{
  "regions": [
    {
      "id": "1",
      "name": "Ilocos Region",
      "provinces": [
        {
          "id": "1-1",
          "name": "Ilocos Norte",
          "municipalities": [
            { "name": "Adams", "postal_code": "2922", "barangays": [] },
            { "name": "Bacarra", "postal_code": "2916", "barangays": [] },
            { "name": "Badoc", "postal_code": "2904", "barangays": [] },
            { "name": "Bangui", "postal_code": "2920", "barangays": [] },
            { "name": "Banna", "postal_code": "2908", "barangays": [] },
            {
              "name": "Batac City",
              "postal_code": "2906",
              "barangays": []
            },
            { "name": "Burgos", "postal_code": "2918", "barangays": [] },
            { "name": "Carasi", "postal_code": "2911", "barangays": [] },
            { "name": "Currimao", "postal_code": "2903", "barangays": [] },
            { "name": "Dingras", "postal_code": "2913", "barangays": [] },
            { "name": "Dumalneg", "postal_code": "2921", "barangays": [] },
            {
              "name": "Laoag City",
              "postal_code": "2900",
              "barangays": []
            },
            { "name": "Marcos", "postal_code": "2907", "barangays": [] },
            { "name": "Nueva Era", "postal_code": "2909", "barangays": [] },
            { "name": "Pagudpud", "postal_code": "2919", "barangays": [] },
            { "name": "Paoay", "postal_code": "2902", "barangays": [] },
            { "name": "Pasuquin", "postal_code": "2917", "barangays": [] },
            { "name": "Piddig", "postal_code": "2912", "barangays": [] },
            { "name": "Pinili", "postal_code": "2905", "barangays": [] },
            {
              "name": "San Nicolas",
              "postal_code": "2901",
              "barangays": []
            },
            { "name": "Sarrat", "postal_code": "2914", "barangays": [] },
            { "name": "Solsona", "postal_code": "2910", "barangays": [] },
            { "name": "Vintar", "postal_code": "2915", "barangays": [] }
          ]
        },
        {
          "id": "1-2",
          "name": "Ilocos Sur",
          "municipalities": [
            { "name": "Alilem", "postal_code": "2716", "barangays": [] },
            { "name": "Banayoyo", "postal_code": "2708", "barangays": [] },
            { "name": "Bantay", "postal_code": "2727", "barangays": [] },
            { "name": "Burgos", "postal_code": "2724", "barangays": [] },
            { "name": "Cabugao", "postal_code": "2732", "barangays": [] },
            { "name": "Candon City", "postal_code": "2710", "barangays": [] },
            { "name": "Caoayan", "postal_code": "2702", "barangays": [] },
            { "name": "Cervantes", "postal_code": "2718", "barangays": [] },
            { "name": "Galimuyod", "postal_code": "2709", "barangays": [] },
            {
              "name": "Gregorio del Pilar",
              "postal_code": "2720",
              "barangays": []
            },
            { "name": "Lidlidda", "postal_code": "2723", "barangays": [] },
            { "name": "Magsingal", "postal_code": "2730", "barangays": [] },
            { "name": "Nagbukel", "postal_code": "2725", "barangays": [] },
            { "name": "Narvacan", "postal_code": "2704", "barangays": [] },
            { "name": "Quirino", "postal_code": "2721", "barangays": [] },
            { "name": "Salcedo", "postal_code": "2711", "barangays": [] },
            { "name": "San Emilio", "postal_code": "2722", "barangays": [] },
            { "name": "San Esteban", "postal_code": "2706", "barangays": [] },
            { "name": "San Ildefonso", "postal_code": "2728", "barangays": [] },
            { "name": "San Juan", "postal_code": "2731", "barangays": [] },
            { "name": "San Vicente", "postal_code": "2726", "barangays": [] },
            { "name": "Santa", "postal_code": "2703", "barangays": [] },
            {
              "name": "Santa Catalina",
              "postal_code": "2701",
              "barangays": []
            },
            { "name": "Santa Cruz", "postal_code": "2713", "barangays": [] },
            { "name": "Santa Lucia", "postal_code": "2712", "barangays": [] },
            { "name": "Santa Maria", "postal_code": "2705", "barangays": [] },
            { "name": "Santiago", "postal_code": "2707", "barangays": [] },
            { "name": "Santo Domingo", "postal_code": "2729", "barangays": [] },
            { "name": "Sigay", "postal_code": "2719", "barangays": [] },
            { "name": "Sinait", "postal_code": "2733", "barangays": [] },
            { "name": "Sugpon", "postal_code": "2717", "barangays": [] },
            { "name": "Suyo", "postal_code": "2715", "barangays": [] },
            { "name": "Tagudin", "postal_code": "2714", "barangays": [] },
            { "name": "Vigan City", "postal_code": "2700", "barangays": [] }
          ]
        },
        {
          "id": "1-3",
          "name": "La Union",
          "municipalities": [
            {
              "name": "Agoo",
              "postal_code": "2504",
              "barangays": [
                "Ambitacay",
                "Balawarte",
                "Capas",
                "Consolacion (Poblacion)",
                "Macalva Central",
                "Macalva Norte",
                "Macalva Sur",
                "Nazareno",
                "Purok",
                "San Agustin East",
                "San Agustin Norte",
                "San Agustin Sur",
                "San Antonino",
                "San Antonio",
                "San Francisco",
                "San Isidro",
                "San Joaquin Norte",
                "San Joaquin Sur",
                "San Jose Norte",
                "San Jose Sur",
                "San Juan",
                "San Julian Central",
                "San Julian East",
                "San Julian Norte",
                "San Julian West",
                "San Manuel Norte",
                "San Manuel Sur",
                "San Marcos",
                "San Miguel",
                "San Nicolas Central (Poblacion)",
                "San Nicolas East",
                "San Nicolas Norte (Poblacion)",
                "San Nicolas Sur (Poblacion)",
                "San Nicolas West",
                "San Pedro",
                "San Roque East",
                "San Roque West",
                "San Vicente Norte",
                "San Vicente Sur",
                "Santa Ana",
                "Santa Barbara (Poblacion)",
                "Santa Fe",
                "Santa Maria",
                "Santa Monica",
                "Santa Rita (Nalinac)",
                "Santa Rita East",
                "Santa Rita Norte",
                "Santa Rita Sur",
                "Santa Rita West"
              ]
            },
            {
              "name": "Aringay",
              "postal_code": "2503",
              "barangays": [
                "Alaska",
                "Basca",
                "Dulao",
                "Gallano",
                "Macabato",
                "Manga",
                "Pangao-aoan East",
                "Pangao-aoan West",
                "Poblacion",
                "Samara",
                "San Antonio",
                "San Benito Norte",
                "San Benito Sur",
                "San Eugenio",
                "San Juan East",
                "San Juan West",
                "San Simon East",
                "San Simon West",
                "Santa Cecilia",
                "Santa Lucia",
                "Santa Rita East",
                "Santa Rita West",
                "Santo Rosario East",
                "Santo Rosario West"
              ]
            },
            {
              "name": "Bacnotan",
              "postal_code": "2515",
              "barangays": [
                "Agtipal",
                "Arosip",
                "Bacqui",
                "Bacsil",
                "Bagutot",
                "Ballogo",
                "Baroro",
                "Bitalag",
                "Bulala",
                "Burayoc",
                "Bussaoit",
                "Cabaroan",
                "Cabarsican",
                "Cabugao",
                "Calautit",
                "Carcarmay",
                "Casiaman",
                "Galongen",
                "Guinabang",
                "Legleg",
                "Lisqueb",
                "Mabanengbeng 1st",
                "Mabanengbeng 2nd",
                "Maragayap",
                "Nangalisan",
                "Nagatiran",
                "Nagsaraboan",
                "Nagsimbaanan",
                "Narra",
                "Ortega",
                "Paagan",
                "Pandan",
                "Pang-pang",
                "Poblacion",
                "Quirino",
                "Raois",
                "Salincob",
                "San Martin",
                "Santa Cruz",
                "Santa Rita",
                "Sapilang",
                "Sayoan",
                "Sipulo",
                "Tammocalao",
                "Ubbog",
                "Oya-oy",
                "Zaragosa"
              ]
            },
            {
              "name": "Bagulin",
              "postal_code": "2512",
              "barangays": [
                "Alibangsay",
                "Baay",
                "Cambaly",
                "Cardiz",
                "Dagup",
                "Libbo",
                "Suyo (Poblacion)",
                "Tagudtud",
                "Tio-angan",
                "Wallayan"
              ]
            },
            {
              "name": "Balaoan",
              "postal_code": "2517",
              "barangays": [
                "Almieda",
                "Antonino",
                "Apatut",
                "Ar-arampang",
                "Baracbac Este",
                "Baracbac Oeste",
                "Bet-ang",
                "Bulbulala",
                "Bungol",
                "Butubut Este",
                "Butubut Norte",
                "Butubut Oeste",
                "Butubut Sur",
                "Cabuaan Oeste",
                "Calliat",
                "Calungbuyan",
                "Camiling",
                "Dr. Camilo Osias Poblacion",
                "Guinaburan",
                "Masupe",
                "Nagsabaran Norte",
                "Nagsabaran Sur",
                "Nalasin",
                "Napaset",
                "Pagbennecan",
                "Pagleddegan",
                "Pantar Norte",
                "Pantar Sur",
                "Pa-o",
                "Paraoir",
                "Patpata",
                "Sablut",
                "San Pablo",
                "Sinapangan Norte",
                "Sinapangan Sur",
                "Tallipugo"
              ]
            },
            {
              "name": "Bangar",
              "postal_code": "2519",
              "barangays": [
                "Agdeppa",
                "Alzate",
                "Bangaoilan East",
                "Bangaoilan West",
                "Barraca",
                "Cadapli",
                "Caggao",
                "Central East No. 1 (Poblacion)",
                "Central East No. 2 (Poblacion)",
                "Central West No. 1 (Poblacion)",
                "Central West No. 2 (Poblacion)",
                "Central West No. 3 (Poblacion)",
                "Consuegra",
                "General Prim East",
                "General Prim West",
                "General Terrero",
                "Luzong Norte",
                "Luzong Sur",
                "Maria Cristina East",
                "Maria Cristina West",
                "Mindoro",
                "Nagsabaran",
                "Paratong Norte",
                "Paratong No. 3",
                "Paratong No. 4",
                "Quintarong",
                "Reyna Regente",
                "Rissing",
                "San Blas",
                "San Cristobal",
                "Sinapangan Norte",
                "Sinapangan Sur",
                "Ubbog"
              ]
            },
            {
              "name": "Bauang",
              "postal_code": "2501",
              "barangays": [
                "Acao",
                "Baccuit Norte",
                "Baccuit Sur",
                "Bagbag",
                "Ballay",
                "Bawanta",
                "Boy-utan",
                "Bucayab",
                "Cabalayangan",
                "Cabisilan",
                "Calumbaya",
                "Carmay",
                "Casilagan",
                "Central East (Poblacion)",
                "Central West (Poblacion)",
                "Dili",
                "Disso-or",
                "Guerrero",
                "Lower San Agustin",
                "Nagrebcan",
                "Pagdalagan Sur",
                "Palintucang",
                "Palugsi-Limmansangan",
                "Parian Este",
                "Parian Oeste",
                "Paringao",
                "Payocpoc Norte Este",
                "Payocpoc Norte Oeste",
                "Payocpoc Sur",
                "Pilar",
                "Pottot",
                "Pudoc",
                "Pugo",
                "Quinavite",
                "Santa Monica",
                "Santiago",
                "Taberna",
                "Upper San Agustin",
                "Urayong"
              ]
            },
            {
              "name": "Burgos",
              "postal_code": "2510",
              "barangays": [
                "Agpay",
                "Bilis",
                "Caoayan",
                "Dalacdac",
                "Delles",
                "Imelda",
                "Libtong",
                "Linuan",
                "New Poblacion",
                "Old Poblacion",
                "Lower Tumapoc",
                "Upper Tumapoc"
              ]
            },
            {
              "name": "Caba",
              "postal_code": "2502",
              "barangays": [
                "Bautista",
                "Gana",
                "Juan Cartas",
                "Las-ud",
                "Liquicia",
                "Poblacion Norte",
                "Poblacion Sur",
                "San Carlos",
                "San Cornelio",
                "San Fermin",
                "San Gregorio",
                "San Jose",
                "Santiago Norte",
                "Santiago Sur",
                "Sobredillo",
                "Urayong",
                "Wenceslao"
              ]
            },
            {
              "name": "Luna",
              "postal_code": "2518",
              "barangays": [
                "Alcala",
                "Ayaoan",
                "Barangobong",
                "Barrientos",
                "Bungro",
                "Buselbusel",
                "Cabalitocan",
                "Cantoria No. 1",
                "Cantoria No. 2",
                "Cantoria No. 3",
                "Cantoria No. 4",
                "Carisquis",
                "Darigayos",
                "Magallanes",
                "Magsiping",
                "Mamay",
                "Nagrebcan",
                "Nalvo Norte",
                "Nalvo Sur",
                "Napaset",
                "Oaqui No. 1",
                "Oaqui No. 2",
                "Oaqui No. 3",
                "Oaqui No. 4",
                "Pila",
                "Pitpitac",
                "Rimos No. 1",
                "Rimos No. 2",
                "Rimos No. 3",
                "Rimos No. 4",
                "Rimos No. 5",
                "Rissing",
                "Salcedo",
                "Santo Domingo Norte",
                "Santo Domingo Sur",
                "Sucoc Norte",
                "Sucoc Sur",
                "Suyo",
                "Tallaoen",
                "Victoria"
              ]
            },
            {
              "name": "Naguilian",
              "postal_code": "2511",
              "barangays": [
                "Aguioas",
                "Al‑alinao Norte",
                "Al‑alinao Sur",
                "Ambaracao Norte",
                "Ambaracao Sur",
                "Angin",
                "Balecbec",
                "Bancagan",
                "Baraoas Norte",
                "Baraoas Sur",
                "Bariquir",
                "Bato",
                "Bimmotobot",
                "Cabaritan Norte",
                "Cabaritan Sur",
                "Casilagan",
                "Dal‑lipaoen",
                "Daramuangan",
                "Guesset",
                "Gusing Norte",
                "Gusing Sur",
                "Imelda",
                "Lioac Norte",
                "Lioac Sur",
                "Magungunay",
                "Mamat‑ing Norte",
                "Mamat‑ing Sur",
                "Nagsidorisan",
                "Natividad",
                "Ortiz",
                "Ribsuan",
                "San Antonio",
                "San Isidro",
                "Sili",
                "Suguidan Norte",
                "Suguidan Sur",
                "Tuddingan"
              ]
            },
            {
              "name": "Pugo",
              "postal_code": "2508",
              "barangays": [
                "Ambalite",
                "Ambangonan",
                "Cares",
                "Cuenca",
                "Duplas",
                "Maoasoas Norte",
                "Maoasoas Sur",
                "Palina",
                "Poblacion East",
                "Poblacion West",
                "San Luis",
                "Saytan",
                "Tavora East",
                "Tavora Proper"
              ]
            },
            {
              "name": "Rosario",
              "postal_code": "2506",
              "barangays": [
                "Alipang",
                "Ambangonan",
                "Amlang",
                "Bacani",
                "Bangar",
                "Bani",
                "Benteng-Sapilang",
                "Cadumanian",
                "Camp One",
                "Carunuan East",
                "Carunuan West",
                "Casilagan",
                "Cataguingtingan",
                "Concepcion",
                "Damortis",
                "Gumot-Nagcolaran",
                "Inabaan Norte",
                "Inabaan Sur",
                "Marcos",
                "Nagtagaan",
                "Nangcamotian",
                "Parasapas",
                "Poblacion East",
                "Poblacion West",
                "Puzon",
                "Rabon",
                "San Jose",
                "Subusub",
                "Tabtabungao",
                "Tanglag",
                "Tay-ac",
                "Udiao",
                "Vila"
              ]
            },
            {
              "name": "San Fernando City",
              "postal_code": "2500",
              "barangays": [
                "Abut",
                "Apaleng",
                "Bacsil",
                "Bangbangolan",
                "Bangcusay",
                "Barangay I",
                "Barangay II",
                "Barangay III",
                "Barangay IV",
                "Baraoas",
                "Bato",
                "Biday",
                "Birunget",
                "Bungro",
                "Cabaroan",
                "Cabarsican",
                "Cadaclan",
                "Calabugao",
                "Camansi",
                "Canaoay",
                "Carlatan",
                "Catbangen",
                "Dallangayan Este",
                "Dallangayan Oeste",
                "Dalumpinas Este",
                "Dalumpinas Oeste",
                "Ilocanos Norte",
                "Ilocanos Sur",
                "Langcuas",
                "Lingsat",
                "Madayegdeg",
                "Mameltac",
                "Masicong",
                "Nagyubuyuban",
                "Namtutan",
                "Narra Este",
                "Narra Oeste",
                "Pacpaco",
                "Pagdalagan",
                "Pagdaraoan",
                "Pagudpud",
                "Pao Norte",
                "Pao Sur",
                "Parian",
                "Pias",
                "Poro",
                "Puspus",
                "Sacyud",
                "Sagayad",
                "San Agustin",
                "San Francisco",
                "San Vicente",
                "Santiago Norte",
                "Santiago Sur",
                "Saoay",
                "Sevilla",
                "Siboan-Otong",
                "Tanqui",
                "Tanquigan"
              ]
            },
            {
              "name": "San Gabriel",
              "postal_code": "2513",
              "barangays": [
                "Amontoc",
                "Apayao",
                "Balbalayang",
                "Bayabas",
                "Bucao",
                "Bumbuneg",
                "Daking",
                "Lacong",
                "Lipay Este",
                "Lipay Norte",
                "Lipay Proper",
                "Lipay Sur",
                "Lon-oy",
                "Poblacion",
                "Polipol"
              ]
            },
            {
              "name": "San Juan",
              "postal_code": "2514",
              "barangays": [
                "Allangigan",
                "Aludaid",
                "Bacsayan",
                "Balballosa",
                "Bambanay",
                "Bugbugcao",
                "Caarusipan",
                "Cabaroan",
                "Cabugnayan",
                "Cacapian",
                "Caculangan",
                "Calincamasan",
                "Casilagan",
                "Catdongan",
                "Dangdangla",
                "Dasay",
                "Dinanum",
                "Duplas",
                "Guinguinabang",
                "Ili Norte (Poblacion)",
                "Ili Sur (Poblacion)",
                "Legleg",
                "Lubing",
                "Nadsaag",
                "Nagsabaran",
                "Naguirangan",
                "Naguituban",
                "Nagyubuyuban",
                "Oaquing",
                "Pacpacac",
                "Pagdildilan",
                "Panicsican",
                "Quidem",
                "San Felipe",
                "Santa Rosa",
                "Santo Rosario",
                "Saracat",
                "Sinapangan",
                "Taboc",
                "Talogtog",
                "Urbiztondo"
              ]
            },
            {
              "name": "Santol",
              "postal_code": "2516",
              "barangays": [
                "Corrooy",
                "Lettac Norte",
                "Lettac Sur",
                "Mangaan",
                "Paagan",
                "Poblacion",
                "Puguil",
                "Ramot",
                "Sapdaan",
                "Sasaba",
                "Tubaday"
              ]
            },
            {
              "name": "Santo Tomas",
              "postal_code": "2505",
              "barangays": [
                "Ambitacay",
                "Bail",
                "Balaoc",
                "Balsaan",
                "Baybay",
                "Cabaruan",
                "Casantaan",
                "Casilagan",
                "Cupang",
                "Damortis",
                "Fernando",
                "Linong",
                "Lomboy",
                "Malabago",
                "Namboongan",
                "Namonitan",
                "Narvacan",
                "Patac",
                "Poblacion",
                "Pongpong",
                "Raois",
                "Tubod",
                "Tococ",
                "Ubagan"
              ]
            },
            {
              "name": "Sudipen",
              "postal_code": "2520",
              "barangays": [
                "Bigbiga",
                "Bulalaan",
                "Castro",
                "Duplas",
                "Ilocano",
                "Ipet",
                "Maliclico",
                "Namaltugan",
                "Old Central",
                "Poblacion",
                "Porporiket",
                "San Francisco Norte",
                "San Francisco Sur",
                "San Jose",
                "Sengngat",
                "Turod",
                "Up-uplas"
              ]
            },
            {
              "name": "Tubao",
              "postal_code": "2509",
              "barangays": [
                "Amallapay",
                "Anduyan",
                "Caoigue",
                "Francia Sur",
                "Francia West",
                "Garcia",
                "Gonzales",
                "Halog East",
                "Halog West",
                "Leones East",
                "Leones West",
                "Linapew",
                "Lloren",
                "Magsaysay",
                "Pideg",
                "Poblacion",
                "Rizal",
                "Santa Teresa"
              ]
            }
          ]
        },
        {
          "id": "1-4",
          "name": "Pangasinan",
          "municipalities": [
            { "name": "Agno", "postal_code": "2408", "barangays": [] },
            { "name": "Aguilar", "postal_code": "2415", "barangays": [] },
            { "name": "Alaminos City", "postal_code": "2404", "barangays": [] },
            { "name": "Alcala", "postal_code": "2425", "barangays": [] },
            { "name": "Anda", "postal_code": "2405", "barangays": [] },
            { "name": "Asingan", "postal_code": "2439", "barangays": [] },
            { "name": "Balungao", "postal_code": "2442", "barangays": [] },
            { "name": "Bani", "postal_code": "2407", "barangays": [] },
            { "name": "Basista", "postal_code": "2422", "barangays": [] },
            { "name": "Bautista", "postal_code": "2424", "barangays": [] },
            { "name": "Bayambang", "postal_code": "2423", "barangays": [] },
            { "name": "Binalonan", "postal_code": "2436", "barangays": [] },
            { "name": "Binmaley", "postal_code": "2417", "barangays": [] },
            { "name": "Bolinao", "postal_code": "2406", "barangays": [] },
            { "name": "Bugallon", "postal_code": "2416", "barangays": [] },
            { "name": "Burgos", "postal_code": "2410", "barangays": [] },
            { "name": "Calasiao", "postal_code": "2418", "barangays": [] },
            { "name": "Dagupan City", "postal_code": "2400", "barangays": [] },
            { "name": "Dasol", "postal_code": "2411", "barangays": [] },
            { "name": "Infanta", "postal_code": "2412", "barangays": [] },
            { "name": "Labrador", "postal_code": "2402", "barangays": [] },
            { "name": "Laoac", "postal_code": "2437", "barangays": [] },
            { "name": "Lingayen", "postal_code": "2401", "barangays": [] },
            { "name": "Mabini", "postal_code": "2409", "barangays": [] },
            { "name": "Malasiqui", "postal_code": "2421", "barangays": [] },
            { "name": "Manaoag", "postal_code": "2430", "barangays": [] },
            { "name": "Mangaldan", "postal_code": "2432", "barangays": [] },
            { "name": "Mangatarem", "postal_code": "2413", "barangays": [] },
            { "name": "Mapandan", "postal_code": "2429", "barangays": [] },
            { "name": "Natividad", "postal_code": "2446", "barangays": [] },
            { "name": "Pozorrubio", "postal_code": "2435", "barangays": [] }
          ]
        }
      ]
    }
  ]
}
